[{"OBJECT_NAME":"HAWK-11B","OBJECT_ID":"2024-247C","EPOCH":"2026-03-09T10:44:06.809856","MEAN_MOTION":15.2884707,"ECCENTRICITY":0.00046902,"INCLINATION":45.0161,"RA_OF_ASC_NODE":115.761,"ARG_OF_PERICENTER":333.0326,"MEAN_ANOMALY":27.0314,"EPHEMERIS_TYPE":0,"CLASSIFICATION_TYPE":"U","NORAD_CAT_ID":62379,"ELEMENT_SET_NO":999,"REV_AT_EPOCH":6773,"BSTAR":0.00032841927,"MEAN_MOTION_DOT":9.093e-5,"MEAN_MOTION_DDOT":0},{"OBJECT_NAME":"STARLINK-35924","OBJECT_ID":"2025-265A","EPOCH":"2026-03-09T22:22:55.640352","MEAN_MOTION":15.27601307,"ECCENTRICITY":0.00022008,"INCLINATION":43.0005,"RA_OF_ASC_NODE":276.3057,"ARG_OF_PERICENTER":256.5279,"MEAN_ANOMALY":103.5327,"EPHEMERIS_TYPE":0,"CLASSIFICATION_TYPE":"U","NORAD_CAT_ID":66516,"ELEMENT_SET_NO":999,"REV_AT_EPOCH":1715,"BSTAR":0.0015060725,"MEAN_MOTION_DOT":0.00041443,"MEAN_MOTION_DDOT":0}]
